[
  {
    "OBJECT_NAME": "STARLINK-34995",
    "OBJECT_ID": "25184N",
    "EPOCH": "2025-11-11T03:48:04.755168",
    "MEAN_MOTION": 15.05663795,
    "ECCENTRICITY": 5.61e-05,
    "INCLINATION": 97.6053,
    "RA_OF_ASC_NODE": 5.7917,
    "ARG_OF_PERICENTER": 100.3512,
    "MEAN_ANOMALY": 259.7779,
    "EPHEMERIS_TYPE": 0,
    "CLASSIFICATION_TYPE": "U",
    "NORAD_CAT_ID": 65285,
    "ELEMENT_SET_NO": 999,
    "REV_AT_EPOCH": 1346,
    "BSTAR": 0.0007213699999999999,
    "MEAN_MOTION_DOT": 0.00010367,
    "MEAN_MOTION_DDOT": 0.0,
    "TLE_LINE1": "1 65285U 25184N   25315.15838837  .00010367  00000+0  72137-3 0  9994",
    "TLE_LINE2": "2 65285  97.6053   5.7917 0000561 100.3512 259.7779 15.05663795 13468",
    "COMMENT": "Grouped by shell and plane from TLE"
  },
  {
    "OBJECT_NAME": "STARLINK-35048",
    "OBJECT_ID": "25184P",
    "EPOCH": "2025-11-11T03:36:07.155648",
    "MEAN_MOTION": 15.05659901,
    "ECCENTRICITY": 7.09e-05,
    "INCLINATION": 97.6054,
    "RA_OF_ASC_NODE": 5.8047,
    "ARG_OF_PERICENTER": 97.7214,
    "MEAN_ANOMALY": 262.4093,
    "EPHEMERIS_TYPE": 0,
    "CLASSIFICATION_TYPE": "U",
    "NORAD_CAT_ID": 65286,
    "ELEMENT_SET_NO": 999,
    "REV_AT_EPOCH": 1341,
    "BSTAR": 0.00044955,
    "MEAN_MOTION_DOT": 6.433e-05,
    "MEAN_MOTION_DDOT": 0.0,
    "TLE_LINE1": "1 65286U 25184P   25315.15008282  .00006433  00000+0  44955-3 0  9994",
    "TLE_LINE2": "2 65286  97.6054   5.8047 0000709  97.7214 262.4093 15.05659901 13416",
    "COMMENT": "Grouped by shell and plane from TLE"
  },
  {
    "OBJECT_NAME": "STARLINK-35007",
    "OBJECT_ID": "25184Q",
    "EPOCH": "2025-11-11T04:00:01.367136",
    "MEAN_MOTION": 15.05653701,
    "ECCENTRICITY": 0.000188,
    "INCLINATION": 97.6052,
    "RA_OF_ASC_NODE": 5.7804,
    "ARG_OF_PERICENTER": 47.0992,
    "MEAN_ANOMALY": 313.0392,
    "EPHEMERIS_TYPE": 0,
    "CLASSIFICATION_TYPE": "U",
    "NORAD_CAT_ID": 65287,
    "ELEMENT_SET_NO": 999,
    "REV_AT_EPOCH": 1340,
    "BSTAR": 0.0,
    "MEAN_MOTION_DOT": -3.789e-05,
    "MEAN_MOTION_DDOT": 0.0,
    "TLE_LINE1": "1 65287U 25184Q   25315.16668249 -.00003789  00000+0 -25849-3 0  9995",
    "TLE_LINE2": "2 65287  97.6052   5.7804 0001880  47.0992 313.0392 15.05653701 13403",
    "COMMENT": "Grouped by shell and plane from TLE"
  },
  {
    "OBJECT_NAME": "STARLINK-35018",
    "OBJECT_ID": "25184R",
    "EPOCH": "2025-11-11T03:16:11.367552",
    "MEAN_MOTION": 15.05658306,
    "ECCENTRICITY": 0.0001328,
    "INCLINATION": 97.6048,
    "RA_OF_ASC_NODE": 5.8246,
    "ARG_OF_PERICENTER": 94.5267,
    "MEAN_ANOMALY": 265.6112,
    "EPHEMERIS_TYPE": 0,
    "CLASSIFICATION_TYPE": "U",
    "NORAD_CAT_ID": 65288,
    "ELEMENT_SET_NO": 999,
    "REV_AT_EPOCH": 1346,
    "BSTAR": 0.00038526,
    "MEAN_MOTION_DOT": 5.504e-05,
    "MEAN_MOTION_DDOT": 0.0,
    "TLE_LINE1": "1 65288U 25184R   25315.13624268  .00005504  00000+0  38526-3 0  9997",
    "TLE_LINE2": "2 65288  97.6048   5.8246 0001328  94.5267 265.6112 15.05658306 13463",
    "COMMENT": "Grouped by shell and plane from TLE"
  },
  {
    "OBJECT_NAME": "STARLINK-34845",
    "OBJECT_ID": "25184S",
    "EPOCH": "2025-11-11T03:04:13.309248",
    "MEAN_MOTION": 15.05651863,
    "ECCENTRICITY": 0.0001058,
    "INCLINATION": 97.6046,
    "RA_OF_ASC_NODE": 5.8336,
    "ARG_OF_PERICENTER": 83.0938,
    "MEAN_ANOMALY": 277.0409,
    "EPHEMERIS_TYPE": 0,
    "CLASSIFICATION_TYPE": "U",
    "NORAD_CAT_ID": 65289,
    "ELEMENT_SET_NO": 999,
    "REV_AT_EPOCH": 1346,
    "BSTAR": 0.00025516,
    "MEAN_MOTION_DOT": 3.623e-05,
    "MEAN_MOTION_DDOT": 0.0,
    "TLE_LINE1": "1 65289U 25184S   25315.12793182  .00003623  00000+0  25516-3 0  9994",
    "TLE_LINE2": "2 65289  97.6046   5.8336 0001058  83.0938 277.0409 15.05651863 13467",
    "COMMENT": "Grouped by shell and plane from TLE"
  },
  {
    "OBJECT_NAME": "STARLINK-34984",
    "OBJECT_ID": "25184T",
    "EPOCH": "2025-11-11T03:24:09.747072",
    "MEAN_MOTION": 15.05667551,
    "ECCENTRICITY": 0.0001529,
    "INCLINATION": 97.6044,
    "RA_OF_ASC_NODE": 5.8164,
    "ARG_OF_PERICENTER": 98.7654,
    "MEAN_ANOMALY": 261.3746,
    "EPHEMERIS_TYPE": 0,
    "CLASSIFICATION_TYPE": "U",
    "NORAD_CAT_ID": 65290,
    "ELEMENT_SET_NO": 999,
    "REV_AT_EPOCH": 1346,
    "BSTAR": 0.00021378,
    "MEAN_MOTION_DOT": 3.027e-05,
    "MEAN_MOTION_DDOT": 0.0,
    "TLE_LINE1": "1 65290U 25184T   25315.14177948  .00003027  00000+0  21378-3 0  9994",
    "TLE_LINE2": "2 65290  97.6044   5.8164 0001529  98.7654 261.3746 15.05667551 13468",
    "COMMENT": "Grouped by shell and plane from TLE"
  },
  {
    "OBJECT_NAME": "STARLINK-35002",
    "OBJECT_ID": "25184U",
    "EPOCH": "2025-11-11T02:40:17.148576",
    "MEAN_MOTION": 15.0566249,
    "ECCENTRICITY": 3.35e-05,
    "INCLINATION": 97.6034,
    "RA_OF_ASC_NODE": 5.6996,
    "ARG_OF_PERICENTER": 155.8872,
    "MEAN_ANOMALY": 204.237,
    "EPHEMERIS_TYPE": 0,
    "CLASSIFICATION_TYPE": "U",
    "NORAD_CAT_ID": 65291,
    "ELEMENT_SET_NO": 999,
    "REV_AT_EPOCH": 1345,
    "BSTAR": 0.0006117399999999999,
    "MEAN_MOTION_DOT": 8.78e-05,
    "MEAN_MOTION_DDOT": 0.0,
    "TLE_LINE1": "1 65291U 25184U   25315.11130959  .00008780  00000+0  61174-3 0  9992",
    "TLE_LINE2": "2 65291  97.6034   5.6996 0000335 155.8872 204.2370 15.05662490 13455",
    "COMMENT": "Grouped by shell and plane from TLE"
  },
  {
    "OBJECT_NAME": "STARLINK-35017",
    "OBJECT_ID": "25184V",
    "EPOCH": "2025-11-11T02:56:15.267552",
    "MEAN_MOTION": 15.05663844,
    "ECCENTRICITY": 0.0001565,
    "INCLINATION": 97.6039,
    "RA_OF_ASC_NODE": 5.8413,
    "ARG_OF_PERICENTER": 90.2643,
    "MEAN_ANOMALY": 269.8763,
    "EPHEMERIS_TYPE": 0,
    "CLASSIFICATION_TYPE": "U",
    "NORAD_CAT_ID": 65292,
    "ELEMENT_SET_NO": 999,
    "REV_AT_EPOCH": 1341,
    "BSTAR": 0.00053615,
    "MEAN_MOTION_DOT": 7.687e-05,
    "MEAN_MOTION_DDOT": 0.0,
    "TLE_LINE1": "1 65292U 25184V   25315.12239893  .00007687  00000+0  53615-3 0  9997",
    "TLE_LINE2": "2 65292  97.6039   5.8413 0001565  90.2643 269.8763 15.05663844 13414",
    "COMMENT": "Grouped by shell and plane from TLE"
  },
  {
    "OBJECT_NAME": "STARLINK-34951",
    "OBJECT_ID": "25184W",
    "EPOCH": "2025-11-11T03:40:06.336768",
    "MEAN_MOTION": 15.05664057,
    "ECCENTRICITY": 4.05e-05,
    "INCLINATION": 97.6046,
    "RA_OF_ASC_NODE": 5.8008,
    "ARG_OF_PERICENTER": 112.081,
    "MEAN_ANOMALY": 248.046,
    "EPHEMERIS_TYPE": 0,
    "CLASSIFICATION_TYPE": "U",
    "NORAD_CAT_ID": 65293,
    "ELEMENT_SET_NO": 999,
    "REV_AT_EPOCH": 1346,
    "BSTAR": 0.00071506,
    "MEAN_MOTION_DOT": 0.00010276,
    "MEAN_MOTION_DDOT": 0.0,
    "TLE_LINE1": "1 65293U 25184W   25315.15285112  .00010276  00000+0  71506-3 0  9993",
    "TLE_LINE2": "2 65293  97.6046   5.8008 0000405 112.0810 248.0460 15.05664057 13469",
    "COMMENT": "Grouped by shell and plane from TLE"
  },
  {
    "OBJECT_NAME": "STARLINK-34613",
    "OBJECT_ID": "25184X",
    "EPOCH": "2025-11-11T02:20:21.182496",
    "MEAN_MOTION": 15.05666255,
    "ECCENTRICITY": 9.94e-05,
    "INCLINATION": 97.6056,
    "RA_OF_ASC_NODE": 5.7188,
    "ARG_OF_PERICENTER": 75.2399,
    "MEAN_ANOMALY": 284.8938,
    "EPHEMERIS_TYPE": 0,
    "CLASSIFICATION_TYPE": "U",
    "NORAD_CAT_ID": 65294,
    "ELEMENT_SET_NO": 999,
    "REV_AT_EPOCH": 1345,
    "BSTAR": 0.00077222,
    "MEAN_MOTION_DOT": 0.00011104,
    "MEAN_MOTION_DDOT": 0.0,
    "TLE_LINE1": "1 65294U 25184X   25315.09746739  .00011104  00000+0  77222-3 0  9996",
    "TLE_LINE2": "2 65294  97.6056   5.7188 0000994  75.2399 284.8938 15.05666255 13453",
    "COMMENT": "Grouped by shell and plane from TLE"
  },
  {
    "OBJECT_NAME": "STARLINK-34834",
    "OBJECT_ID": "25184Y",
    "EPOCH": "2025-11-11T02:48:14.581152",
    "MEAN_MOTION": 15.05648202,
    "ECCENTRICITY": 0.0002468,
    "INCLINATION": 97.6022,
    "RA_OF_ASC_NODE": 5.6957,
    "ARG_OF_PERICENTER": 123.3895,
    "MEAN_ANOMALY": 236.7569,
    "EPHEMERIS_TYPE": 0,
    "CLASSIFICATION_TYPE": "U",
    "NORAD_CAT_ID": 65295,
    "ELEMENT_SET_NO": 999,
    "REV_AT_EPOCH": 1345,
    "BSTAR": 6.6559e-07,
    "MEAN_MOTION_DOT": -5.1e-07,
    "MEAN_MOTION_DDOT": 0.0,
    "TLE_LINE1": "1 65295U 25184Y   25315.11683543 -.00000051  00000+0  66559-6 0  9997",
    "TLE_LINE2": "2 65295  97.6022   5.6957 0002468 123.3895 236.7569 15.05648202 13452",
    "COMMENT": "Grouped by shell and plane from TLE"
  },
  {
    "OBJECT_NAME": "STARLINK-34872",
    "OBJECT_ID": "25184Z",
    "EPOCH": "2025-11-11T02:32:18.780288",
    "MEAN_MOTION": 15.05664532,
    "ECCENTRICITY": 7.43e-05,
    "INCLINATION": 97.6048,
    "RA_OF_ASC_NODE": 5.7076,
    "ARG_OF_PERICENTER": 136.9957,
    "MEAN_ANOMALY": 223.1328,
    "EPHEMERIS_TYPE": 0,
    "CLASSIFICATION_TYPE": "U",
    "NORAD_CAT_ID": 65296,
    "ELEMENT_SET_NO": 999,
    "REV_AT_EPOCH": 1345,
    "BSTAR": 0.00059006,
    "MEAN_MOTION_DOT": 8.467e-05,
    "MEAN_MOTION_DDOT": 0.0,
    "TLE_LINE1": "1 65296U 25184Z   25315.10577292  .00008467  00000+0  59006-3 0  9994",
    "TLE_LINE2": "2 65296  97.6048   5.7076 0000743 136.9957 223.1328 15.05664532 13454",
    "COMMENT": "Grouped by shell and plane from TLE"
  }
]